satname,norad_id,inclination_deg,eccentricity,mean_motion_rev_per_day,perigee_km,apogee_km,l1,l2
STARLINK-1394,45679,53.0467,0.0003879,15.53592007,403.6169188457761,408.88024518030124,1 45679U 20035Y   26090.25787495  .00106744  00000+0  16313-2 0  9992,2 45679  53.0467 292.7997 0003879 227.7364 132.3317 15.53592007322500
STARLINK-1402,45685,53.0455,0.0003044,15.48162428,420.0317318721036,424.17171720760416,1 45685U 20035AE  26090.23921045  .00090871  00000+0  16891-2 0  9992,2 45685  53.0455 280.5231 0003044 285.2892  74.7778 15.48162428322682
STARLINK-1404,45686,53.1604,0.0001303,15.37209203,453.47613971370447,455.2566901036289,1 45686U 20035AF  26090.87297425  .00017241  00000+0  47575-3 0  9995,2 45686  53.1604 306.3386 0001303 100.8845 259.2305 15.37209203322377
STARLINK-1413,45689,53.161,0.0001306,15.30217862,474.2666964106784,476.0567780408419,1 45689U 20035AJ  26089.99478985  .00002954  00000+0  11176-3 0  9994,2 45689  53.1610 310.6198 0001306  93.5142 266.6008 15.30217862322158
STARLINK-1417,45693,53.0515,0.0001859,15.13510414,524.2211372917373,526.7879112104529,1 45693U 20035AN  26090.32873682  .00013422  00000+0  75612-3 0  9998,2 45693  53.0515 316.1458 0001859 305.7575  54.3244 15.13510414322173
STARLINK-1420,45695,53.0497,0.0004228,15.57991555,390.60743024074145,396.3335015138873,1 45695U 20035AQ  26090.77613532  .00126440  00000+0  16376-2 0  9991,2 45695  53.0497 275.5158 0004228 222.5965 137.4719 15.57991555322796
STARLINK-1422,45696,53.1598,0.0001803,15.30189698,474.01016458279173,476.48149443111197,1 45696U 20035AR  26090.59000387  .00001153  00000+0  51068-4 0  9992,2 45696  53.1598 307.8581 0001803  86.8121 273.3086 15.30189698322324
STARLINK-1351,45697,53.0491,0.000411,15.56529871,394.92425330839615,400.49399882402304,1 45697U 20035AS  26090.91671296  .00176604  00000+0  23977-2 0  9992,2 45697  53.0491 274.2608 0004110 240.8348 208.5062 15.56529871  5961
STARLINK-1400,45700,53.0479,0.0006113,15.54488815,399.49328860533205,407.7846879285871,1 45700U 20035AV  26090.91671296  .00155827  00000+0  22866-2 0  9997,2 45700  53.0479 275.9096 0006113 184.9591 279.4677 15.54488815  5963
STARLINK-1403,45701,53.1562,0.0001293,15.29339907,476.89788494193726,478.67082620448764,1 45701U 20035AW  26090.88391508 -.00002074  00000+0 -59574-4 0  9994,2 45701  53.1562 293.5504 0001293  78.5904 281.5242 15.29339907322545
STARLINK-1407,45703,53.0321,0.0004672,15.64706167,370.92931346583555,377.2385887225373,1 45703U 20035AY  26090.06385509  .00075626  00000+0  76292-3 0  9996,2 45703  53.0321 211.2384 0004672 194.0380 166.0505 15.64706167323633
STARLINK-1411,45706,53.0419,0.0003371,15.670717,365.01326296048137,369.5610279193379,1 45706U 20035BB  26090.91671296  .00153780  00000+0  13929-2 0  9999,2 45706  53.0419 232.4298 0003371 279.8366  33.7272 15.67071700  5947
STARLINK-1423,45710,53.0489,0.0006597,15.56832617,392.36121817168714,401.3001105080175,1 45710U 20035BF  26090.50999000  .00125233  00000+0  16932-2 0  9994,2 45710  53.0489 276.5376 0006597 205.8932 154.1749 15.56832617322743
STARLINK-1433,45711,53.0471,0.0006097,15.5918461,385.8891555401333,394.1422409403676,1 45711U 20035BG  26090.91671296  .00181341  00000+0  22266-2 0  9993,2 45711  53.0471 273.2796 0006097 202.6713 303.2814 15.59184610  5870
STARLINK-1434,45712,53.0512,0.0003527,15.2869513,477.2932622650869,482.1307889677573,1 45712U 20035BH  26090.54955103  .00063043  00000+0  22227-2 0  9990,2 45712  53.0512 278.6301 0003527 172.5490 187.5561 15.28695130322739
STARLINK-1465,45731,53.0492,0.0006148,15.5318956,403.2487055986394,411.5922270592364,1 45731U 20038B   26090.35049292  .00039562  00000+0  62309-3 0  9991,2 45731  53.0492 118.9581 0006148   9.5923 350.5203 15.53189560319740
STARLINK-1471,45735,53.0478,0.0001708,15.50155745,415.11045430056583,417.43142405258914,1 45735U 20038F   26090.83439723  .00032497  00000+0  57257-3 0  9996,2 45735  53.0478  35.8328 0001708  33.7429 326.3688 15.50155745320960
STARLINK-1480,45741,53.0517,0.0002161,15.55228918,400.0221978147665,402.95235142625734,1 45741U 20038M   26090.31759531  .00081880  00000+0  11843-2 0  9998,2 45741  53.0517 113.3254 0002161  68.5183 291.6057 15.55228918319834
STARLINK-1500,45744,53.0352,0.0003132,15.35958876,455.9327501193029,460.2149525965924,1 45744U 20038Q   26090.28863940  .00031328  00000+0  88911-3 0  9990,2 45744  53.0352  91.3419 0003132  10.3271 349.7794 15.35958876320133
STARLINK-1504,45746,53.0233,0.0001091,15.54704896,402.27077276149066,403.75041916693044,1 45746U 20038S   26090.55447772  .00041362  00000+0  61649-3 0  9991,2 45746  53.0233  36.5828 0001091  64.9624 295.1498 15.54704896320910
STARLINK-1506,45747,53.0737,0.0003261,15.26654106,483.5846195424192,488.06129422629965,1 45747U 20038T   26090.72509830  .00009477  00000+0  36918-3 0  9997,2 45747  53.0737 100.3980 0003261 348.2400  11.8521 15.26654106320052
STARLINK-1464,45751,53.0507,0.0004122,15.46300275,424.7548405576654,430.3654572872365,1 45751U 20038X   26090.75378745  .00089061  00000+0  17660-2 0  9993,2 45751  53.0507  99.5309 0004122  18.2144 341.9009 15.46300275320068
STARLINK-1477,45754,53.0486,0.0003072,15.15378523,517.7105804578023,521.9486911588428,1 45754U 20038AA  26090.46936010  .00012537  00000+0  67143-3 0  9995,2 45754  53.0486 113.8765 0003072  41.4897 318.6328 15.15378523319834
STARLINK-1478,45755,53.0487,0.0004257,15.58999962,387.6686710583663,393.43153125629215,1 45755U 20038AB  26090.71349300  .00116820  00000+0  14588-2 0  9998,2 45755  53.0487  91.0828 0004257  13.6991 346.4136 15.58999962320162
STARLINK-1493,45759,53.0502,0.0004937,15.53875392,402.0746536127972,408.7727414455385,1 45759U 20038AF  26090.85876266  .00104313  00000+0  15782-2 0  9994,2 45759  53.0502  97.7962 0004937  71.0983 289.0561 15.53875392320080
STARLINK-1494,45760,53.048,0.0006323,15.78840355,329.4812520213645,337.9690729120193,1 45760U 20038AG  26090.91671296  .00134630  00000+0  73963-3 0  9990,2 45760  53.0480  40.7234 0006323  90.1210 109.6774 15.78840355  5770
STARLINK-1502,45764,53.0499,0.0006188,15.50463573,411.1677814885261,419.5754277375963,1 45764U 20038AL  26090.75512579  .00098331  00000+0  16828-2 0  9997,2 45764  53.0499 100.3531 0006188  61.9414 298.2220 15.50463573320053
STARLINK-1470,45772,53.044,0.0003085,15.29797998,474.3010082815563,478.53026725906057,1 45772U 20038AU  26090.63834454  .00055449  00000+0  18934-2 0  9995,2 45772  53.0440  72.3006 0003085  70.8639 289.2693 15.29797998320437
STARLINK-1482,45773,53.1575,0.0002463,15.31684232,469.1001092353745,472.4738891973875,1 45773U 20038AV  26090.29108133  .00053163  00000+0  17135-2 0  9999,2 45773  53.1575  90.5840 0002463  77.2901 282.8375 15.31684232320152
STARLINK-1496,45780,53.0501,0.0001181,15.51747756,410.8211384452852,412.4248797594346,1 45780U 20038BC  26090.37166174  .00099877  00000+0  16334-2 0  9997,2 45780  53.0501  73.7865 0001181 346.4861  13.6116 15.51747756320370
STARLINK-1513,45786,53.1602,0.000143,15.30195502,474.2484684029996,476.2085309359054,1 45786U 20038BJ  26090.70157361 -.00000510  00000+0 -50791-5 0  9994,2 45786  53.1602  88.9064 0001430  88.0144 272.1020 15.30195502320210
STARLINK-1522,46027,53.0651,0.0002458,15.10072505,534.2791871904074,537.6781664571336,1 46027U 20055A   26090.26573542  .00030438  00000+0  18584-2 0  9997,2 46027  53.0651  29.1703 0002458 107.1040 253.0220 15.10072505312146
STARLINK-1523,46028,53.1593,0.0001301,15.3020151,474.31894031754655,476.10218135287596,1 46028U 20055B   26090.53333815 -.00015813  00000+0 -52287-3 0  9996,2 46028  53.1593  25.2427 0001301 102.0512 258.0634 15.30201510312244
STARLINK-1526,46029,53.1562,0.0002233,15.29359156,476.1959138574575,479.2577426431553,1 46029U 20055C   26090.52385763  .00002984  00000+0  11571-3 0  9999,2 46029  53.1562  25.2639 0002233  78.9169 281.2083 15.29359156312233
STARLINK-1555,46032,53.1587,0.0002862,15.3020206,473.2474910356277,477.1703462394553,1 46032U 20055F   26090.83779435  .00006068  00000+0  21682-3 0  9991,2 46032  53.1587  23.8226 0002862  79.0144 281.1179 15.30202060312286
STARLINK-1556,46033,53.1589,0.0001097,15.29394231,476.86992987967005,478.374083405728,1 46033U 20055G   26090.09483285  .00020857  00000+0  73223-3 0  9995,2 46033  53.1589  27.2105 0001097  83.7945 276.3180 15.29394231312146
STARLINK-1557,46034,53.1586,0.0002222,15.29352406,476.2236236542449,479.27037850432407,1 46034U 20055H   26090.80745157 -.00002468  00000+0 -73186-4 0  9993,2 46034  53.1586  23.8070 0002222  74.8774 285.2472 15.29352406312252
STARLINK-1558,46035,53.1614,0.0001328,15.30185624,474.3478630449008,476.1681247552806,1 46035U 20055J   26090.83148065  .00000311  00000+0  22636-4 0  9999,2 46035  53.1614  23.8635 0001328  89.4612 270.6541 15.30185624312287
STARLINK-1560,46036,53.1594,0.0001649,15.29372362,476.5568362230406,478.8178870975162,1 46036U 20055K   26090.54281230  .00001404  00000+0  60969-4 0  9995,2 46036  53.1594  25.0721 0001649  98.1174 262.0014 15.29372362312242
STARLINK-1567,46038,53.0909,0.0001474,15.60572197,385.00612165951225,387.0001901774758,1 46038U 20055M   26090.85834359  .01641305  00000+0  17526-1 0  9996,2 46038  53.0909  21.7830 0001474  70.2355 289.8817 15.60572197312303
STARLINK-1569,46039,53.1594,0.0002588,15.30201312,473.43750552486836,476.9847985283559,1 46039U 20055N   26090.83462840  .00004901  00000+0  17751-3 0  9993,2 46039  53.1594  23.8433 0002588 103.0097 257.1192 15.30201312312277
STARLINK-1582,46043,53.1602,0.0001547,15.30202064,474.14869408252343,476.26911930605456,1 46043U 20055S   26090.51437563  .00005419  00000+0  19496-3 0  9990,2 46043  53.1602  25.3213 0001547  97.8300 262.2877 15.30202064312223
STARLINK-1591,46045,53.1629,0.0001604,15.30205091,474.1005934193954,476.2991438868585,1 46045U 20055U   26090.54070208  .00000935  00000+0  43686-4 0  9991,2 46045  53.1629  25.2073 0001604  96.4744 263.6439 15.30205091312219
